{
    "links": {
        "self": "http://www.neowsapp.com/rest/v1/neo/3843368?api_key=iIulBulltgU6a56xZRHN4H3l9WmuAYTsLGpBGhQ2"
    },
    "id": "3843368",
    "neo_reference_id": "3843368",
    "name": "(2019 ON1)",
    "designation": "2019 ON1",
    "nasa_jpl_url": "http://ssd.jpl.nasa.gov/sbdb.cgi?sstr=3843368",
    "absolute_magnitude_h": 24.9,
    "estimated_diameter": {
        "kilometers": {
            "estimated_diameter_min": 0.0278326768,
            "estimated_diameter_max": 0.0622357573
        },
        "meters": {
            "estimated_diameter_min": 27.8326768072,
            "estimated_diameter_max": 62.2357573367
        },
        "miles": {
            "estimated_diameter_min": 0.0172944182,
            "estimated_diameter_max": 0.0386714948
        },
        "feet": {
            "estimated_diameter_min": 91.3145593761,
            "estimated_diameter_max": 204.1855621004
        }
    },
    "is_potentially_hazardous_asteroid": false,
    "close_approach_data": [
        {
            "close_approach_date": "2006-08-17",
            "close_approach_date_full": "2006-Aug-17 04:03",
            "epoch_date_close_approach": 1155787380000,
            "relative_velocity": {
                "kilometers_per_second": "4.0376806565",
                "kilometers_per_hour": "14535.6503635395",
                "miles_per_hour": "9031.8878606115"
            },
            "miss_distance": {
                "astronomical": "0.1699979807",
                "lunar": "66.1292144923",
                "kilometers": "25431335.817021109",
                "miles": "15802299.3143409442"
            },
            "orbiting_body": "Earth"
        },
        {
            "close_approach_date": "2019-08-16",
            "close_approach_date_full": "2019-Aug-16 12:17",
            "epoch_date_close_approach": 1565957820000,
            "relative_velocity": {
                "kilometers_per_second": "3.8316919465",
                "kilometers_per_hour": "13794.0910073981",
                "miles_per_hour": "8571.1117151247"
            },
            "miss_distance": {
                "astronomical": "0.1478707208",
                "lunar": "57.5217103912",
                "kilometers": "22121144.867044696",
                "miles": "13745442.0357649648"
            },
            "orbiting_body": "Earth"
        },
        {
            "close_approach_date": "2032-08-14",
            "close_approach_date_full": "2032-Aug-14 13:56",
            "epoch_date_close_approach": 1976104560000,
            "relative_velocity": {
                "kilometers_per_second": "4.2656007444",
                "kilometers_per_hour": "15356.1626797758",
                "miles_per_hour": "9541.7223051085"
            },
            "miss_distance": {
                "astronomical": "0.1577340867",
                "lunar": "61.3585597263",
                "kilometers": "23596683.396715329",
                "miles": "14662299.1628723802"
            },
            "orbiting_body": "Earth"
        }
    ],
    "orbital_data": {
        "orbit_id": "1",
        "orbit_determination_date": "2019-07-29 05:48:54",
        "first_observation_date": "2019-07-03",
        "last_observation_date": "2019-07-29",
        "data_arc_in_days": 26,
        "observations_used": 18,
        "orbit_uncertainty": "7",
        "minimum_orbit_intersection": ".148071",
        "jupiter_tisserand_invariant": "3.861",
        "epoch_osculation": "2459000.5",
        "eccentricity": ".3890219178505722",
        "semi_major_axis": "1.889933681882598",
        "inclination": "4.217852350414855",
        "ascending_node_longitude": "296.7231055865198",
        "orbital_period": "949.0045055666726",
        "perihelion_distance": "1.154708056346237",
        "perihelion_argument": "31.38736274180389",
        "aphelion_distance": "2.625159307418959",
        "perihelion_time": "2458717.841987441015",
        "mean_anomaly": "107.2248697707429",
        "mean_motion": ".3793448797011091",
        "equinox": "J2000",
        "orbit_class": {
            "orbit_class_type": "AMO",
            "orbit_class_description": "Near-Earth asteroid orbits similar to that of 1221 Amor",
            "orbit_class_range": "1.017 AU < q (perihelion) < 1.3 AU"
        }
    },
    "is_sentry_object": false
}